{"type": "FeatureCollection", "crs": {"type": "name", "properties": {"name": "urn:ogc:def:crs:EPSG::32611"}}, "features": [{"type": "Feature", "properties": {"id": 6645}, "geometry": {"type": "Polygon", "coordinates": [[[483324.4897693835, 3767762.9875939945], [483341.0503274651, 3767771.303867727], [483345.32731085835, 3767762.865415104], [483328.7667418328, 3767754.5491264495], [483324.4897693835, 3767762.9875939945]]]}}, {"type": "Feature", "properties": {"id": 6646}, "geometry": {"type": "Polygon", "coordinates": [[[483324.7475730995, 3767767.618246698], [483320.5265040627, 3767776.251284997], [483334.7247891718, 3767783.12849865], [483338.94547769526, 3767774.4962713346], [483324.7475730995, 3767767.618246698]]]}}, {"type": "Feature", "properties": {"id": 6643}, "geometry": {"type": "Polygon", "coordinates": [[[483354.09994181537, 3767745.9901492293], [483343.1403792044, 3767739.1004636833], [483338.4514651035, 3767746.490572744], [483349.41102262045, 3767753.3802474816], [483354.09994181537, 3767745.9901492293]]]}}, {"type": "Feature", "properties": {"id": 6641}, "geometry": {"type": "Polygon", "coordinates": [[[483341.6893348548, 3767735.3927690624], [483344.89110489347, 3767728.8113960964], [483342.0861103835, 3767727.459369707], [483338.88434183283, 3767734.040744569], [483341.6893348548, 3767735.3927690624]]]}}, {"type": "Feature", "properties": {"id": 6642}, "geometry": {"type": "Polygon", "coordinates": [[[483346.6032450111, 3767740.2754344265], [483347.73118151835, 3767738.540682254], [483356.89252648444, 3767744.441938054], [483362.1934350367, 3767736.2883509765], [483347.5537823929, 3767726.858252322], [483341.12503093976, 3767736.746664451], [483346.6032450111, 3767740.2754344265]]]}}, {"type": "Feature", "properties": {"id": 6644}, "geometry": {"type": "Polygon", "coordinates": [[[483290.14093750983, 3767760.758435228], [483297.8288760714, 3767763.271901719], [483300.4242832479, 3767755.408317855], [483292.73599986424, 3767752.894201276], [483290.14093750983, 3767760.758435228]]]}}, {"type": "Feature", "properties": {"id": 6647}, "geometry": {"type": "Polygon", "coordinates": [[[483326.6519068761, 3767794.4451389285], [483331.1671395973, 3767786.3574505392], [483316.8066004264, 3767778.41402438], [483312.2913761281, 3767786.501726424], [483326.6519068761, 3767794.4451389285]]]}}, {"type": "Feature", "properties": {"id": 6638}, "geometry": {"type": "Polygon", "coordinates": [[[483309.94738590845, 3767718.716190242], [483297.1979579232, 3767710.5330175753], [483291.1165017136, 3767719.9207727597], [483302.8180256352, 3767727.431340543], [483306.08399495506, 3767722.3897770075], [483307.1318920327, 3767723.062366304], [483309.94738590845, 3767718.716190242]]]}}, {"type": "Feature", "properties": {"id": 6296}, "geometry": {"type": "Polygon", "coordinates": [[[483285.7728408466, 3767752.772035524], [483292.0899035928, 3767742.8997622826], [483279.6998481134, 3767735.044602299], [483273.3828936753, 3767744.9178170767], [483285.7728408466, 3767752.772035524]]]}}, {"type": "Feature", "properties": {"id": 6640}, "geometry": {"type": "Polygon", "coordinates": [[[483287.43756786286, 3767722.5615000734], [483283.8211038732, 3767730.2265569777], [483296.6756534462, 3767736.236490672], [483300.2925663081, 3767728.5716496585], [483287.43756786286, 3767722.5615000734]]]}}, {"type": "Feature", "properties": {"id": 6648}, "geometry": {"type": "Polygon", "coordinates": [[[483301.28024249634, 3767794.968102847], [483317.1091835729, 3767804.4104466103], [483321.79781625926, 3767796.6229054844], [483305.9688669043, 3767787.180546105], [483301.28024249634, 3767794.968102847]]]}}, {"type": "Feature", "properties": {"id": 6298}, "geometry": {"type": "Polygon", "coordinates": [[[483265.4702133558, 3767755.49830514], [483283.8142948896, 3767766.878297181], [483288.47627931193, 3767759.4325653794], [483270.13218903565, 3767748.0525553445], [483265.4702133558, 3767755.49830514]]]}}, {"type": "Feature", "properties": {"id": 6636}, "geometry": {"type": "Polygon", "coordinates": [[[483311.80987792125, 3767713.0728566614], [483317.0962629277, 3767703.7271904666], [483304.5152323141, 3767696.676260306], [483299.22885573114, 3767706.02194051], [483311.80987792125, 3767713.0728566614]]]}}, {"type": "Feature", "properties": {"id": 6639}, "geometry": {"type": "Polygon", "coordinates": [[[483363.45027057687, 3767722.355404027], [483358.97326946084, 3767731.511785344], [483365.7722824662, 3767734.805522447], [483370.1519622632, 3767725.8481992423], [483372.3516435024, 3767726.9138228986], [483380.0404376594, 3767711.1887326166], [483368.6420696404, 3767705.6668503415], [483361.0506160284, 3767721.192907205], [483363.45027057687, 3767722.355404027]]]}}, {"type": "Feature", "properties": {"id": 6637}, "geometry": {"type": "Polygon", "coordinates": [[[483352.68951014313, 3767717.582631707], [483362.9217629139, 3767700.012235022], [483352.1033034968, 3767693.770035506], [483341.87165898597, 3767711.3415509257], [483352.68951014313, 3767717.582631707]]]}}, {"type": "Feature", "properties": {"id": 6635}, "geometry": {"type": "Polygon", "coordinates": [[[483338.51771012245, 3767710.348929673], [483346.71761445305, 3767691.7758106096], [483337.1808233659, 3767687.604199701], [483328.98093407496, 3767706.1773352576], [483338.51771012245, 3767710.348929673]]]}}, {"type": "Feature", "properties": {"id": 6649}, "geometry": {"type": "Polygon", "coordinates": [[[483290.1086894196, 3767793.9715067917], [483285.5551828024, 3767791.474636958], [483279.388472539, 3767802.6172219287], [483283.9419754477, 3767805.1140858512], [483290.1086894196, 3767793.9715067917]]]}}, {"type": "Feature", "properties": {"id": 6650}, "geometry": {"type": "Polygon", "coordinates": [[[483293.4203072532, 3767801.5665257163], [483289.9007948662, 3767810.136782175], [483295.1996316319, 3767812.2927666022], [483295.71948294586, 3767811.0268940697], [483311.10490522435, 3767817.286917077], [483314.82997688313, 3767808.2146165622], [483301.0526631663, 3767802.6088932795], [483300.3269981609, 3767804.3762351666], [483293.4203072532, 3767801.5665257163]]]}}, {"type": "Feature", "properties": {"id": 6300}, "geometry": {"type": "Polygon", "coordinates": [[[483268.9843885727, 3767777.600516655], [483274.1689816016, 3767769.612748299], [483261.7831118376, 3767761.6474937154], [483256.59852483723, 3767769.6352755814], [483268.9843885727, 3767777.600516655]]]}}, {"type": "Feature", "properties": {"id": 6301}, "geometry": {"type": "Polygon", "coordinates": [[[483264.85212006024, 3767788.1435062317], [483267.55470250477, 3767781.2129203356], [483254.2257050552, 3767776.06230482], [483251.52281661716, 3767782.993704219], [483264.85212006024, 3767788.1435062317]]]}}, {"type": "Feature", "properties": {"id": 6634}, "geometry": {"type": "Polygon", "coordinates": [[[483332.0733101329, 3767679.832641352], [483321.33894990355, 3767674.807197442], [483315.08624158055, 3767688.0379734132], [483325.8203012808, 3767693.064014488], [483332.0733101329, 3767679.832641352]]]}}, {"type": "Feature", "properties": {"id": 6651}, "geometry": {"type": "Polygon", "coordinates": [[[483304.45993460447, 3767823.0362162534], [483289.29416570434, 3767814.9311037245], [483284.4496900438, 3767823.912308787], [483299.6154487715, 3767832.0174058424], [483304.45993460447, 3767823.0362162534]]]}}, {"type": "Feature", "properties": {"id": 6977}, "geometry": {"type": "Polygon", "coordinates": [[[483395.90368967253, 3767743.804142285], [483400.52201926854, 3767748.024000378], [483405.2007774036, 3767742.9505114155], [483400.5822544612, 3767738.7304724557], [483395.90368967253, 3767743.804142285]]]}}, {"type": "Feature", "properties": {"id": 6303}, "geometry": {"type": "Polygon", "coordinates": [[[483257.8436241717, 3767797.026515161], [483267.88617448596, 3767801.835557098], [483270.39853475394, 3767796.637440564], [483247.5014954277, 3767785.672824783], [483244.0815532534, 3767792.7487883423], [483256.9363815886, 3767798.9036216033], [483257.8436241717, 3767797.026515161]]]}}, {"type": "Feature", "properties": {"id": 6652}, "geometry": {"type": "Polygon", "coordinates": [[[483353.4308399134, 3767838.1386362175], [483341.2408102978, 3767830.8669239427], [483336.55217879417, 3767838.6544274464], [483348.7422020385, 3767845.9261276918], [483353.4308399134, 3767838.1386362175]]]}}, {"type": "Feature", "properties": {"id": 6290}, "geometry": {"type": "Polygon", "coordinates": [[[483239.66925320367, 3767716.5195334735], [483255.9977315459, 3767725.4593776707], [483260.5929125836, 3767717.1436759913], [483244.26442430384, 3767708.203815996], [483239.66925320367, 3767716.5195334735]]]}}, {"type": "Feature", "properties": {"id": 6293}, "geometry": {"type": "Polygon", "coordinates": [[[483245.4181219669, 3767736.7982779825], [483250.4634829859, 3767728.1427061027], [483235.39630516997, 3767719.4408798767], [483230.3514076093, 3767728.0967301796], [483245.4181219669, 3767736.7982779825]]]}}, {"type": "Feature", "properties": {"id": 6284}, "geometry": {"type": "Polygon", "coordinates": [[[483256.0212439829, 3767688.891941395], [483272.8752731811, 3767697.235883708], [483276.8201392807, 3767689.3410423133], [483259.9660995609, 3767680.9970859895], [483256.0212439829, 3767688.891941395]]]}}, {"type": "Feature", "properties": {"id": 6286}, "geometry": {"type": "Polygon", "coordinates": [[[483250.0074411031, 3767694.482800288], [483248.8788649148, 3767696.5926625747], [483244.4469621158, 3767694.243853243], [483241.36903155234, 3767699.998024321], [483258.90393079334, 3767709.291136842], [483263.1104472149, 3767701.427117959], [483250.0074411031, 3767694.482800288]]]}}, {"type": "Feature", "properties": {"id": 6282}, "geometry": {"type": "Polygon", "coordinates": [[[483267.0348145972, 3767676.2494245996], [483280.26800868835, 3767684.3990159268], [483285.9107633329, 3767675.3207563655], [483276.61175901553, 3767669.5940042776], [483275.3946945447, 3767671.5520630833], [483271.4604975023, 3767669.1292091375], [483267.0348145972, 3767676.2494245996]]]}}, {"type": "Feature", "properties": {"id": 6654}, "geometry": {"type": "Polygon", "coordinates": [[[483336.4564933736, 3767852.0003110385], [483339.02667650447, 3767847.213070701], [483325.56049375015, 3767840.0499205356], [483321.3454027212, 3767847.9010057556], [483337.69718376815, 3767856.5991039374], [483339.34210025956, 3767853.5352720106], [483336.4564933736, 3767852.0003110385]]]}}, {"type": "Feature", "properties": {"id": 6978}, "geometry": {"type": "Polygon", "coordinates": [[[483451.7487265346, 3767791.092397373], [483464.7601999017, 3767768.9898582366], [483460.63195108227, 3767766.581985713], [483462.9383236927, 3767762.663696003], [483402.45031308144, 3767727.3874802534], [483398.13535752887, 3767734.717380503], [483409.9173326617, 3767741.58850413], [483399.4142372662, 3767759.4303017035], [483387.553546964, 3767752.512465418], [483382.1993377817, 3767761.608885097], [483382.5675353472, 3767761.8236129], [483379.2237651721, 3767767.5044456148], [483438.21164168295, 3767801.905591657], [483446.41006299696, 3767787.9789110404], [483451.7487265346, 3767791.092397373]]]}}, {"type": "Feature", "properties": {"id": 6304}, "geometry": {"type": "Polygon", "coordinates": [[[483246.9720388775, 3767811.308007291], [483251.44463633664, 3767804.7163581783], [483240.40783864923, 3767797.2965359357], [483235.93524531793, 3767803.8881954313], [483246.9720388775, 3767811.308007291]]]}}, {"type": "Feature", "properties": {"id": 6295}, "geometry": {"type": "Polygon", "coordinates": [[[483225.88161103183, 3767740.687404373], [483239.8973922742, 3767747.4546007826], [483244.65651722136, 3767737.688661934], [483227.4371124879, 3767729.374662732], [483224.13487085426, 3767736.151041251], [483227.3384815972, 3767737.697827755], [483225.88161103183, 3767740.687404373]]]}}, {"type": "Feature", "properties": {"id": 6307}, "geometry": {"type": "Polygon", "coordinates": [[[483267.25875691505, 3767827.06145425], [483264.2218081745, 3767825.2705508913], [483260.3178467958, 3767831.8298005247], [483262.8059906097, 3767833.2970694746], [483259.8361918755, 3767838.287373124], [483272.35764026357, 3767845.6704618894], [483274.85191551753, 3767841.4797109137], [483291.8753397257, 3767851.51736575], [483299.358193372, 3767838.9451326057], [483270.3615827888, 3767821.8476278894], [483267.25875691505, 3767827.06145425]]]}}, {"type": "Feature", "properties": {"id": 6297}, "geometry": {"type": "Polygon", "coordinates": [[[483232.5846174349, 3767760.561727253], [483237.01217606093, 3767751.34338079], [483219.0942802027, 3767742.8167646024], [483214.66673497105, 3767752.035127787], [483232.5846174349, 3767760.561727253]]]}}, {"type": "Feature", "properties": {"id": 6653}, "geometry": {"type": "Polygon", "coordinates": [[[483358.8801162376, 3767845.607145098], [483368.76712375524, 3767851.6384017104], [483371.63153286, 3767846.986023382], [483361.74452233943, 3767840.9547608113], [483358.8801162376, 3767845.607145098]]]}}, {"type": "Feature", "properties": {"id": 6288}, "geometry": {"type": "Polygon", "coordinates": [[[483240.3085759839, 3767708.006106273], [483235.6054355671, 3767705.3804564467], [483232.2289590814, 3767711.3728076834], [483236.9320974719, 3767713.998454168], [483240.3085759839, 3767708.006106273]]]}}, {"type": "Feature", "properties": {"id": 6655}, "geometry": {"type": "Polygon", "coordinates": [[[483346.3197167116, 3767858.187350805], [483349.50595924305, 3767850.2551735383], [483344.9413121634, 3767848.4385310924], [483341.7554430727, 3767856.3711763057], [483346.3197167116, 3767858.187350805]]]}}, {"type": "Feature", "properties": {"id": 6979}, "geometry": {"type": "Polygon", "coordinates": [[[483390.16097004805, 3767810.131422155], [483391.81107310334, 3767811.101428004], [483389.3206330247, 3767815.298977478], [483411.32196829485, 3767828.2323952117], [483414.13725567464, 3767823.4873522366], [483422.3877434885, 3767828.3373973784], [483426.57036573795, 3767821.2877916517], [483423.82028686075, 3767819.6709652417], [483431.656732845, 3767806.4630286354], [483402.50492087525, 3767789.326155247], [483390.16097004805, 3767810.131422155]]]}}]}