{"type": "FeatureCollection", "crs": {"type": "name", "properties": {"name": "urn:ogc:def:crs:EPSG::32611"}}, "features": [{"type": "Feature", "properties": {"id": 6645}, "geometry": {"type": "Polygon", "coordinates": [[[483324.4897693835, 3767762.9875939945], [483341.0503274651, 3767771.303867727], [483345.32731085835, 3767762.865415104], [483328.7667418328, 3767754.5491264495], [483324.4897693835, 3767762.9875939945]]]}}, {"type": "Feature", "properties": {"id": 6646}, "geometry": {"type": "Polygon", "coordinates": [[[483324.7475730995, 3767767.618246698], [483320.5265040627, 3767776.251284997], [483334.7247891718, 3767783.12849865], [483338.94547769526, 3767774.4962713346], [483324.7475730995, 3767767.618246698]]]}}, {"type": "Feature", "properties": {"id": 6643}, "geometry": {"type": "Polygon", "coordinates": [[[483354.09994181537, 3767745.9901492293], [483343.1403792044, 3767739.1004636833], [483338.4514651035, 3767746.490572744], [483349.41102262045, 3767753.3802474816], [483354.09994181537, 3767745.9901492293]]]}}, {"type": "Feature", "properties": {"id": 6641}, "geometry": {"type": "Polygon", "coordinates": [[[483341.6893348548, 3767735.3927690624], [483344.89110489347, 3767728.8113960964], [483342.0861103835, 3767727.459369707], [483338.88434183283, 3767734.040744569], [483341.6893348548, 3767735.3927690624]]]}}, {"type": "Feature", "properties": {"id": 6642}, "geometry": {"type": "Polygon", "coordinates": [[[483346.6032450111, 3767740.2754344265], [483347.73118151835, 3767738.540682254], [483356.89252648444, 3767744.441938054], [483362.1934350367, 3767736.2883509765], [483347.5537823929, 3767726.858252322], [483341.12503093976, 3767736.746664451], [483346.6032450111, 3767740.2754344265]]]}}, {"type": "Feature", "properties": {"id": 6644}, "geometry": {"type": "Polygon", "coordinates": [[[483290.14093750983, 3767760.758435228], [483297.8288760714, 3767763.271901719], [483300.4242832479, 3767755.408317855], [483292.73599986424, 3767752.894201276], [483290.14093750983, 3767760.758435228]]]}}, {"type": "Feature", "properties": {"id": 6647}, "geometry": {"type": "Polygon", "coordinates": [[[483326.6519068761, 3767794.4451389285], [483331.1671395973, 3767786.3574505392], [483316.8066004264, 3767778.41402438], [483312.2913761281, 3767786.501726424], [483326.6519068761, 3767794.4451389285]]]}}, {"type": "Feature", "properties": {"id": 6638}, "geometry": {"type": "Polygon", "coordinates": [[[483309.94738590845, 3767718.716190242], [483297.1979579232, 3767710.5330175753], [483291.1165017136, 3767719.9207727597], [483302.8180256352, 3767727.431340543], [483306.08399495506, 3767722.3897770075], [483307.1318920327, 3767723.062366304], [483309.94738590845, 3767718.716190242]]]}}, {"type": "Feature", "properties": {"id": 6296}, "geometry": {"type": "Polygon", "coordinates": [[[483285.7728408466, 3767752.772035524], [483292.0899035928, 3767742.8997622826], [483279.6998481134, 3767735.044602299], [483273.3828936753, 3767744.9178170767], [483285.7728408466, 3767752.772035524]]]}}, {"type": "Feature", "properties": {"id": 6640}, "geometry": {"type": "Polygon", "coordinates": [[[483287.43756786286, 3767722.5615000734], [483283.8211038732, 3767730.2265569777], [483296.6756534462, 3767736.236490672], [483300.2925663081, 3767728.5716496585], [483287.43756786286, 3767722.5615000734]]]}}, {"type": "Feature", "properties": {"id": 6648}, "geometry": {"type": "Polygon", "coordinates": [[[483301.28024249634, 3767794.968102847], [483317.1091835729, 3767804.4104466103], [483321.79781625926, 3767796.6229054844], [483305.9688669043, 3767787.180546105], [483301.28024249634, 3767794.968102847]]]}}, {"type": "Feature", "properties": {"id": 6298}, "geometry": {"type": "Polygon", "coordinates": [[[483265.4702133558, 3767755.49830514], [483283.8142948896, 3767766.878297181], [483288.47627931193, 3767759.4325653794], [483270.13218903565, 3767748.0525553445], [483265.4702133558, 3767755.49830514]]]}}, {"type": "Feature", "properties": {"id": 6636}, "geometry": {"type": "Polygon", "coordinates": [[[483311.80987792125, 3767713.0728566614], [483317.0962629277, 3767703.7271904666], [483304.5152323141, 3767696.676260306], [483299.22885573114, 3767706.02194051], [483311.80987792125, 3767713.0728566614]]]}}, {"type": "Feature", "properties": {"id": 6639}, "geometry": {"type": "Polygon", "coordinates": [[[483363.45027057687, 3767722.355404027], [483358.97326946084, 3767731.511785344], [483365.7722824662, 3767734.805522447], [483370.1519622632, 3767725.8481992423], [483372.3516435024, 3767726.9138228986], [483380.0404376594, 3767711.1887326166], [483368.6420696404, 3767705.6668503415], [483361.0506160284, 3767721.192907205], [483363.45027057687, 3767722.355404027]]]}}, {"type": "Feature", "properties": {"id": 6637}, "geometry": {"type": "Polygon", "coordinates": [[[483352.68951014313, 3767717.582631707], [483362.9217629139, 3767700.012235022], [483352.1033034968, 3767693.770035506], [483341.87165898597, 3767711.3415509257], [483352.68951014313, 3767717.582631707]]]}}, {"type": "Feature", "properties": {"id": 6635}, "geometry": {"type": "Polygon", "coordinates": [[[483338.51771012245, 3767710.348929673], [483346.71761445305, 3767691.7758106096], [483337.1808233659, 3767687.604199701], [483328.98093407496, 3767706.1773352576], [483338.51771012245, 3767710.348929673]]]}}, {"type": "Feature", "properties": {"id": 6649}, "geometry": {"type": "Polygon", "coordinates": [[[483290.1086894196, 3767793.9715067917], [483285.5551828024, 3767791.474636958], [483279.388472539, 3767802.6172219287], [483283.9419754477, 3767805.1140858512], [483290.1086894196, 3767793.9715067917]]]}}, {"type": "Feature", "properties": {"id": 6650}, "geometry": {"type": "Polygon", "coordinates": [[[483293.4203072532, 3767801.5665257163], [483289.9007948662, 3767810.136782175], [483295.1996316319, 3767812.2927666022], [483295.71948294586, 3767811.0268940697], [483311.10490522435, 3767817.286917077], [483314.82997688313, 3767808.2146165622], [483301.0526631663, 3767802.6088932795], [483300.3269981609, 3767804.3762351666], [483293.4203072532, 3767801.5665257163]]]}}, {"type": "Feature", "properties": {"id": 6300}, "geometry": {"type": "Polygon", "coordinates": [[[483268.9843885727, 3767777.600516655], [483274.1689816016, 3767769.612748299], [483261.7831118376, 3767761.6474937154], [483256.59852483723, 3767769.6352755814], [483268.9843885727, 3767777.600516655]]]}}, {"type": "Feature", "properties": {"id": 6301}, "geometry": {"type": "Polygon", "coordinates": [[[483264.85212006024, 3767788.1435062317], [483267.55470250477, 3767781.2129203356], [483254.2257050552, 3767776.06230482], [483251.52281661716, 3767782.993704219], [483264.85212006024, 3767788.1435062317]]]}}, {"type": "Feature", "properties": {"id": 6634}, "geometry": {"type": "Polygon", "coordinates": [[[483332.0733101329, 3767679.832641352], [483321.33894990355, 3767674.807197442], [483315.08624158055, 3767688.0379734132], [483325.8203012808, 3767693.064014488], [483332.0733101329, 3767679.832641352]]]}}, {"type": "Feature", "properties": {"id": 6651}, "geometry": {"type": "Polygon", "coordinates": [[[483304.45993460447, 3767823.0362162534], [483289.29416570434, 3767814.9311037245], [483284.4496900438, 3767823.912308787], [483299.6154487715, 3767832.0174058424], [483304.45993460447, 3767823.0362162534]]]}}, {"type": "Feature", "properties": {"id": 6977}, "geometry": {"type": "Polygon", "coordinates": [[[483395.90368967253, 3767743.804142285], [483400.52201926854, 3767748.024000378], [483405.2007774036, 3767742.9505114155], [483400.5822544612, 3767738.7304724557], [483395.90368967253, 3767743.804142285]]]}}, {"type": "Feature", "properties": {"id": 6303}, "geometry": {"type": "Polygon", "coordinates": [[[483257.8436241717, 3767797.026515161], [483267.88617448596, 3767801.835557098], [483270.39853475394, 3767796.637440564], [483247.5014954277, 3767785.672824783], [483244.0815532534, 3767792.7487883423], [483256.9363815886, 3767798.9036216033], [483257.8436241717, 3767797.026515161]]]}}, {"type": "Feature", "properties": {"id": 6652}, "geometry": {"type": "Polygon", "coordinates": [[[483353.4308399134, 3767838.1386362175], [483341.2408102978, 3767830.8669239427], [483336.55217879417, 3767838.6544274464], [483348.7422020385, 3767845.9261276918], [483353.4308399134, 3767838.1386362175]]]}}, {"type": "Feature", "properties": {"id": 6290}, "geometry": {"type": "Polygon", "coordinates": [[[483239.66925320367, 3767716.5195334735], [483255.9977315459, 3767725.4593776707], [483260.5929125836, 3767717.1436759913], [483244.26442430384, 3767708.203815996], [483239.66925320367, 3767716.5195334735]]]}}, {"type": "Feature", "properties": {"id": 6293}, "geometry": {"type": "Polygon", "coordinates": [[[483245.4181219669, 3767736.7982779825], [483250.4634829859, 3767728.1427061027], [483235.39630516997, 3767719.4408798767], [483230.3514076093, 3767728.0967301796], [483245.4181219669, 3767736.7982779825]]]}}, {"type": "Feature", "properties": {"id": 6284}, "geometry": {"type": "Polygon", "coordinates": [[[483256.0212439829, 3767688.891941395], [483272.8752731811, 3767697.235883708], [483276.8201392807, 3767689.3410423133], [483259.9660995609, 3767680.9970859895], [483256.0212439829, 3767688.891941395]]]}}, {"type": "Feature", "properties": {"id": 6286}, "geometry": {"type": "Polygon", "coordinates": [[[483250.0074411031, 3767694.482800288], [483248.8788649148, 3767696.5926625747], [483244.4469621158, 3767694.243853243], [483241.36903155234, 3767699.998024321], [483258.90393079334, 3767709.291136842], [483263.1104472149, 3767701.427117959], [483250.0074411031, 3767694.482800288]]]}}, {"type": "Feature", "properties": {"id": 6282}, "geometry": {"type": "Polygon", "coordinates": [[[483267.0348145972, 3767676.2494245996], [483280.26800868835, 3767684.3990159268], [483285.9107633329, 3767675.3207563655], [483276.61175901553, 3767669.5940042776], [483275.3946945447, 3767671.5520630833], [483271.4604975023, 3767669.1292091375], [483267.0348145972, 3767676.2494245996]]]}}, {"type": "Feature", "properties": {"id": 6654}, "geometry": {"type": "Polygon", "coordinates": [[[483336.4564933736, 3767852.0003110385], [483339.02667650447, 3767847.213070701], [483325.56049375015, 3767840.0499205356], [483321.3454027212, 3767847.9010057556], [483337.69718376815, 3767856.5991039374], [483339.34210025956, 3767853.5352720106], [483336.4564933736, 3767852.0003110385]]]}}, {"type": "Feature", "properties": {"id": 6304}, "geometry": {"type": "Polygon", "coordinates": [[[483246.9720388775, 3767811.308007291], [483251.44463633664, 3767804.7163581783], [483240.40783864923, 3767797.2965359357], [483235.93524531793, 3767803.8881954313], [483246.9720388775, 3767811.308007291]]]}}, {"type": "Feature", "properties": {"id": 6978}, "geometry": {"type": "Polygon", "coordinates": [[[483451.7487265346, 3767791.092397373], [483464.7601999017, 3767768.9898582366], [483460.63195108227, 3767766.581985713], [483462.9383236927, 3767762.663696003], [483402.45031308144, 3767727.3874802534], [483398.13535752887, 3767734.717380503], [483409.9173326617, 3767741.58850413], [483399.4142372662, 3767759.4303017035], [483387.553546964, 3767752.512465418], [483382.1993377817, 3767761.608885097], [483382.5675353472, 3767761.8236129], [483379.2237651721, 3767767.5044456148], [483438.21164168295, 3767801.905591657], [483446.41006299696, 3767787.9789110404], [483451.7487265346, 3767791.092397373]]]}}, {"type": "Feature", "properties": {"id": 6295}, "geometry": {"type": "Polygon", "coordinates": [[[483225.88161103183, 3767740.687404373], [483239.8973922742, 3767747.4546007826], [483244.65651722136, 3767737.688661934], [483227.4371124879, 3767729.374662732], [483224.13487085426, 3767736.151041251], [483227.3384815972, 3767737.697827755], [483225.88161103183, 3767740.687404373]]]}}, {"type": "Feature", "properties": {"id": 6307}, "geometry": {"type": "Polygon", "coordinates": [[[483267.25875691505, 3767827.06145425], [483264.2218081745, 3767825.2705508913], [483260.3178467958, 3767831.8298005247], [483262.8059906097, 3767833.2970694746], [483259.8361918755, 3767838.287373124], [483272.35764026357, 3767845.6704618894], [483274.85191551753, 3767841.4797109137], [483291.8753397257, 3767851.51736575], [483299.358193372, 3767838.9451326057], [483270.3615827888, 3767821.8476278894], [483267.25875691505, 3767827.06145425]]]}}, {"type": "Feature", "properties": {"id": 6297}, "geometry": {"type": "Polygon", "coordinates": [[[483232.5846174349, 3767760.561727253], [483237.01217606093, 3767751.34338079], [483219.0942802027, 3767742.8167646024], [483214.66673497105, 3767752.035127787], [483232.5846174349, 3767760.561727253]]]}}, {"type": "Feature", "properties": {"id": 6653}, "geometry": {"type": "Polygon", "coordinates": [[[483358.8801162376, 3767845.607145098], [483368.76712375524, 3767851.6384017104], [483371.63153286, 3767846.986023382], [483361.74452233943, 3767840.9547608113], [483358.8801162376, 3767845.607145098]]]}}, {"type": "Feature", "properties": {"id": 6288}, "geometry": {"type": "Polygon", "coordinates": [[[483240.3085759839, 3767708.006106273], [483235.6054355671, 3767705.3804564467], [483232.2289590814, 3767711.3728076834], [483236.9320974719, 3767713.998454168], [483240.3085759839, 3767708.006106273]]]}}, {"type": "Feature", "properties": {"id": 6655}, "geometry": {"type": "Polygon", "coordinates": [[[483346.3197167116, 3767858.187350805], [483349.50595924305, 3767850.2551735383], [483344.9413121634, 3767848.4385310924], [483341.7554430727, 3767856.3711763057], [483346.3197167116, 3767858.187350805]]]}}, {"type": "Feature", "properties": {"id": 6979}, "geometry": {"type": "Polygon", "coordinates": [[[483390.16097004805, 3767810.131422155], [483391.81107310334, 3767811.101428004], [483389.3206330247, 3767815.298977478], [483411.32196829485, 3767828.2323952117], [483414.13725567464, 3767823.4873522366], [483422.3877434885, 3767828.3373973784], [483426.57036573795, 3767821.2877916517], [483423.82028686075, 3767819.6709652417], [483431.656732845, 3767806.4630286354], [483402.50492087525, 3767789.326155247], [483390.16097004805, 3767810.131422155]]]}}, {"type": "Feature", "properties": {"id": 6633}, "geometry": {"type": "Polygon", "coordinates": [[[483274.7541335628, 3767659.2705293973], [483290.69212878187, 3767669.640913327], [483298.166373821, 3767658.259677718], [483282.228367745, 3767647.8892687303], [483274.7541335628, 3767659.2705293973]]]}}, {"type": "Feature", "properties": {"id": 6291}, "geometry": {"type": "Polygon", "coordinates": [[[483227.82455537375, 3767725.8658383684], [483231.4394708015, 3767720.3275042716], [483221.7026404408, 3767714.030693819], [483218.0877282658, 3767719.569035318], [483227.82455537375, 3767725.8658383684]]]}}, {"type": "Feature", "properties": {"id": 6657}, "geometry": {"type": "Polygon", "coordinates": [[[483324.19555691606, 3767859.565349244], [483322.24201757135, 3767862.4290053663], [483315.9129540617, 3767858.1515956977], [483309.7080416185, 3767867.248215567], [483320.0312688476, 3767874.2250185907], [483328.1895890791, 3767862.2646647934], [483324.19555691606, 3767859.565349244]]]}}, {"type": "Feature", "properties": {"id": 6305}, "geometry": {"type": "Polygon", "coordinates": [[[483227.62599958025, 3767815.302670277], [483236.3133492574, 3767820.2033373727], [483241.57575752144, 3767810.9606532445], [483232.8876509265, 3767806.0601568124], [483227.62599958025, 3767815.302670277]]]}}, {"type": "Feature", "properties": {"id": 6656}, "geometry": {"type": "Polygon", "coordinates": [[[483363.03432349494, 3767858.6939941198], [483353.9560493971, 3767853.136523088], [483347.44517991197, 3767863.673116016], [483356.5239841505, 3767869.2309029596], [483363.03432349494, 3767858.6939941198]]]}}, {"type": "Feature", "properties": {"id": 6294}, "geometry": {"type": "Polygon", "coordinates": [[[483219.7278860509, 3767731.4198457], [483222.25797736715, 3767732.9482455743], [483225.87740277767, 3767727.0118644875], [483214.49198092346, 3767720.134059752], [483207.582181273, 3767731.467165494], [483216.4375041784, 3767736.816555547], [483219.7278860509, 3767731.4198457]]]}}, {"type": "Feature", "properties": {"id": 6280}, "geometry": {"type": "Polygon", "coordinates": [[[483266.3161041286, 3767658.7622212963], [483258.9099669205, 3767653.8969597816], [483249.70158272365, 3767667.7839591526], [483257.1077138696, 3767672.6492063235], [483266.3161041286, 3767658.7622212963]]]}}, {"type": "Feature", "properties": {"id": 6299}, "geometry": {"type": "Polygon", "coordinates": [[[483212.00091780344, 3767765.329136107], [483208.0956448879, 3767771.8860331164], [483219.62317915936, 3767778.688598993], [483227.5853100092, 3767765.3203394534], [483198.75465914764, 3767748.304950844], [483194.69658269937, 3767755.1176218153], [483212.00091780344, 3767765.329136107]]]}}, {"type": "Feature", "properties": {"id": 6278}, "geometry": {"type": "Polygon", "coordinates": [[[483268.9254880591, 3767657.9940767973], [483273.193028246, 3767650.9591540704], [483263.6719907934, 3767645.2366590453], [483259.40409337205, 3767652.2713729325], [483268.9254880591, 3767657.9940767973]]]}}, {"type": "Feature", "properties": {"id": 6287}, "geometry": {"type": "Polygon", "coordinates": [[[483211.5716213626, 3767709.846171719], [483218.66800910933, 3767713.1584734623], [483221.9390805535, 3767706.216052399], [483214.84287938965, 3767702.903341192], [483211.5716213626, 3767709.846171719]]]}}, {"type": "Feature", "properties": {"id": 6975}, "geometry": {"type": "Polygon", "coordinates": [[[483376.886860455, 3767656.0646794885], [483388.52411754796, 3767662.9209486158], [483397.2347339311, 3767648.270709664], [483388.26059446414, 3767642.9840682917], [483389.7388521749, 3767640.497809309], [483387.07633818244, 3767638.9291460356], [483376.886860455, 3767656.0646794885]]]}}, {"type": "Feature", "properties": {"id": 6632}, "geometry": {"type": "Polygon", "coordinates": [[[483375.9910095874, 3767636.168116811], [483370.40674146364, 3767632.7744132243], [483361.86752934096, 3767646.6961760237], [483371.95491401956, 3767652.827231553], [483377.7448543838, 3767643.387717705], [483373.2414166039, 3767640.6508610696], [483375.9910095874, 3767636.168116811]]]}}, {"type": "Feature", "properties": {"id": 6302}, "geometry": {"type": "Polygon", "coordinates": [[[483200.08669538685, 3767775.89534731], [483194.0347176435, 3767785.7512145415], [483208.0766380045, 3767794.294261631], [483214.128624823, 3767784.438412281], [483200.08669538685, 3767775.89534731]]]}}, {"type": "Feature", "properties": {"id": 6631}, "geometry": {"type": "Polygon", "coordinates": [[[483353.33391469176, 3767620.1028141603], [483343.2708772477, 3767636.3124525705], [483356.3342264316, 3767644.347602112], [483364.07503193273, 3767631.8786722403], [483359.60128111154, 3767629.126900158], [483361.9235256741, 3767625.386217089], [483353.33391469176, 3767620.1028141603]]]}}, {"type": "Feature", "properties": {"id": 6658}, "geometry": {"type": "Polygon", "coordinates": [[[483377.0594528001, 3767853.666151624], [483374.65903914743, 3767858.0154739562], [483368.76983966195, 3767854.7951310747], [483359.58567596186, 3767871.436015344], [483363.7651031736, 3767873.721411624], [483360.5297787211, 3767879.5835337066], [483372.49812209664, 3767886.1280765813], [483368.0104135279, 3767894.2593918154], [483359.8415509107, 3767889.7924881736], [483363.2856018968, 3767883.5521709844], [483341.5137892055, 3767871.6469263276], [483335.4983181381, 3767882.5451072534], [483339.22308261634, 3767884.5821311716], [483339.95361440675, 3767883.2584646097], [483352.7556730037, 3767890.259755211], [483349.3113970015, 3767896.4997032317], [483366.144685112, 3767905.705650644], [483368.4033439665, 3767901.6131653255], [483374.2925144752, 3767904.8334919987], [483383.72225646395, 3767887.7477038684], [483379.7329314246, 3767885.5659709685], [483382.82692832436, 3767879.9599486836], [483370.85858438525, 3767873.415388483], [483375.2419397132, 3767865.473157682], [483388.8052018077, 3767872.8898647665], [483394.2327632536, 3767863.056925691], [483377.0594528001, 3767853.666151624]]]}}, {"type": "Feature", "properties": {"id": 6630}, "geometry": {"type": "Polygon", "coordinates": [[[483328.87307863776, 3767625.5715573607], [483338.18425827054, 3767630.66047562], [483346.2183845609, 3767616.0958769955], [483336.9071949874, 3767611.0069429865], [483328.87307863776, 3767625.5715573607]]]}}, {"type": "Feature", "properties": {"id": 6309}, "geometry": {"type": "Polygon", "coordinates": [[[483243.0024727923, 3767868.5376464864], [483245.8668012026, 3767863.154552688], [483249.4596641389, 3767865.0484468774], [483252.87504061556, 3767858.6289018034], [483244.3768246829, 3767854.148672738], [483238.0971754185, 3767865.9519377085], [483243.0024727923, 3767868.5376464864]]]}}, {"type": "Feature", "properties": {"id": 6289}, "geometry": {"type": "Polygon", "coordinates": [[[483198.14544750325, 3767721.8926591873], [483202.8605277139, 3767724.511181241], [483207.8056569443, 3767715.687573204], [483183.1823451864, 3767702.0130222347], [483179.3942361408, 3767708.7713498026], [483199.30281663645, 3767719.8275587773], [483198.14544750325, 3767721.8926591873]]]}}, {"type": "Feature", "properties": {"id": 6310}, "geometry": {"type": "Polygon", "coordinates": [[[483250.98868109955, 3767872.968365913], [483266.2356639856, 3767881.46983072], [483270.55891713116, 3767873.7876971145], [483255.31192581786, 3767865.2862184253], [483250.98868109955, 3767872.968365913]]]}}, {"type": "Feature", "properties": {"id": 6277}, "geometry": {"type": "Polygon", "coordinates": [[[483254.3080806619, 3767631.531434779], [483250.76745589724, 3767637.612135034], [483248.2753091532, 3767636.1743894536], [483244.30588247767, 3767642.9923499594], [483253.83200986154, 3767648.4880720824], [483258.66013274004, 3767640.1962184776], [483261.62195997045, 3767641.904932093], [483264.30425508285, 3767637.2983464007], [483254.3080806619, 3767631.531434779]]]}}, {"type": "Feature", "properties": {"id": 6976}, "geometry": {"type": "Polygon", "coordinates": [[[483420.54348311195, 3767670.345105136], [483416.30736964196, 3767667.876701292], [483407.31863997097, 3767683.160563342], [483415.42225197057, 3767687.883132569], [483416.8637417551, 3767685.4321178775], [483430.5751574823, 3767693.4218364838], [483434.133581661, 3767687.3720708853], [483442.6055205178, 3767692.3087346274], [483446.2717841534, 3767686.075646748], [483451.530352599, 3767689.139862768], [483464.3198749088, 3767667.3936184105], [483454.00619461207, 3767661.3830102836], [483456.2036320208, 3767657.646667347], [483445.889621821, 3767651.6365958783], [483441.3610946385, 3767659.336554665], [483438.0458760359, 3767657.40475071], [483435.2425068638, 3767662.171391813], [483438.00518821785, 3767663.781226759], [483434.7705339646, 3767669.2811934724], [483436.1432198506, 3767670.081067505], [483432.9082814447, 3767675.580863765], [483421.4060549086, 3767668.878446398], [483420.54348311195, 3767670.345105136]]]}}, {"type": "Feature", "properties": {"id": 6308}, "geometry": {"type": "Polygon", "coordinates": [[[483229.9049688936, 3767845.088728519], [483216.2922514487, 3767835.8605819372], [483210.5401460515, 3767844.266763676], [483224.15325988486, 3767853.4951668475], [483229.9049688936, 3767845.088728519]]]}}, {"type": "Feature", "properties": {"id": 6281}, "geometry": {"type": "Polygon", "coordinates": [[[483211.4908996837, 3767668.681351612], [483205.06493046455, 3767665.357089983], [483200.81434871454, 3767673.498001336], [483216.3048355943, 3767681.5114904875], [483219.9074036029, 3767674.6107844184], [483217.4638787741, 3767673.3468745584], [483219.6904445154, 3767669.082469756], [483213.0695629026, 3767665.6578298816], [483211.4908996837, 3767668.681351612]]]}}, {"type": "Feature", "properties": {"id": 6279}, "geometry": {"type": "Polygon", "coordinates": [[[483219.3794423289, 3767653.0822081524], [483214.41620140907, 3767659.767491013], [483226.08946438954, 3767668.353342425], [483231.0527089883, 3767661.6680717403], [483219.3794423289, 3767653.0822081524]]]}}, {"type": "Feature", "properties": {"id": 6285}, "geometry": {"type": "Polygon", "coordinates": [[[483192.21153743943, 3767690.2833696245], [483189.0047316359, 3767697.4865252073], [483204.7181041993, 3767704.417554752], [483207.92491957557, 3767697.214409796], [483192.21153743943, 3767690.2833696245]]]}}, {"type": "Feature", "properties": {"id": 6972}, "geometry": {"type": "Polygon", "coordinates": [[[483380.75759787473, 3767629.3465872877], [483388.94811069866, 3767634.1328662126], [483395.4951230725, 3767623.03247745], [483387.3054329887, 3767618.24610229], [483380.75759787473, 3767629.3465872877]]]}}, {"type": "Feature", "properties": {"id": 6283}, "geometry": {"type": "Polygon", "coordinates": [[[483195.2614855198, 3767683.5653788806], [483205.99029491487, 3767689.971917227], [483210.24484049866, 3767682.9125865395], [483199.5160260228, 3767676.5060385847], [483195.2614855198, 3767683.5653788806]]]}}, {"type": "Feature", "properties": {"id": 6629}, "geometry": {"type": "Polygon", "coordinates": [[[483330.8504448661, 3767610.984086398], [483325.5798886511, 3767608.2732143686], [483327.0292962757, 3767605.4811931383], [483320.39248291316, 3767602.067139206], [483312.7898105432, 3767616.7123472346], [483324.697356926, 3767622.836891472], [483330.8504448661, 3767610.984086398]]]}}, {"type": "Feature", "properties": {"id": 6973}, "geometry": {"type": "Polygon", "coordinates": [[[483402.61874023546, 3767625.5688048247], [483397.4205887942, 3767622.187512816], [483391.07949181576, 3767631.846145034], [483396.2776402504, 3767635.2274301094], [483402.61874023546, 3767625.5688048247]]]}}, {"type": "Feature", "properties": {"id": 6659}, "geometry": {"type": "Polygon", "coordinates": [[[483309.20050248044, 3767894.4630748113], [483297.01795429084, 3767887.3136273073], [483292.6903248668, 3767894.619961836], [483301.86539986986, 3767900.004436666], [483298.55229909346, 3767905.597935918], [483307.61416987324, 3767910.916613301], [483310.4272917657, 3767906.1677996586], [483304.3721214548, 3767902.6138391253], [483309.20050248044, 3767894.4630748113]]]}}]}